{"type": "FeatureCollection", "features": [ {"type": "Feature", "properties": {"norad_id": 34327, "name": "COSMOS 2251 DEB", "group": "cosmos-2251-debris", "lat": -53.01882666625102, "lon": 8.792000584535337, "alt_km": 613.1884144097321, "timestamp": "2025-12-15T11:38:37.546114+00:00", "meta": {"OBJECT_NAME": "COSMOS 2251 DEB", "OBJECT_ID": "1993-036NZ", "EPOCH": "2025-12-14T18:30:59.487840", "MEAN_MOTION": 14.89236536, "ECCENTRICITY": 0.00329409, "INCLINATION": 73.9935, "RA_OF_ASC_NODE": 167.8129, "ARG_OF_PERICENTER": 343.7633, "MEAN_ANOMALY": 28.3563, "EPHEMERIS_TYPE": 0, "CLASSIFICATION_TYPE": "U", "NORAD_CAT_ID": 34327, "ELEMENT_SET_NO": 999, "REV_AT_EPOCH": 89538, "BSTAR": 0.0009933816, "MEAN_MOTION_DOT": 9.472e-05, "MEAN_MOTION_DDOT": 0}, "tle": {"line1": "1 34327U 93036NZ  25348.77152185  .00009472  00000+0  99338-3 0  9994", "line2": "2 34327  73.9935 167.8129 0032940 343.7633  28.3563 14.89236536895385"}}, "geometry": {"type": "Point", "coordinates": [8.792000584535337, -53.01882666625102]}}, {"type": "Feature", "properties": {"norad_id": 34340, "name": "COSMOS 2251 DEB", "group": "cosmos-2251-debris", "lat": 26.202058876141493, "lon": -48.52349981937921, "alt_km": 772.0275510857455, "timestamp": "2025-12-15T11:38:37.546124+00:00", "meta": {"OBJECT_NAME": "COSMOS 2251 DEB", "OBJECT_ID": "1993-036PN", "EPOCH": "2025-12-14T21:43:47.842176", "MEAN_MOTION": 13.79580293, "ECCENTRICITY": 0.02828984, "INCLINATION": 74.079, "RA_OF_ASC_NODE": 304.3699, "ARG_OF_PERICENTER": 51.6342, "MEAN_ANOMALY": 338.8619, "EPHEMERIS_TYPE": 0, "CLASSIFICATION_TYPE": "U", "NORAD_CAT_ID": 34340, "ELEMENT_SET_NO": 999, "REV_AT_EPOCH": 84298, "BSTAR": 0.0014131075, "MEAN_MOTION_DOT": 1.946e-05, "MEAN_MOTION_DDOT": 0}, "tle": {"line1": "1 34340U 93036PN  25348.90541484  .00001946  00000+0  14131-2 0  9993", "line2": "2 34340  74.0790 304.3699 0282898  51.6342 338.8619 13.79580293842981"}}, "geometry": {"type": "Point", "coordinates": [-48.52349981937921, 26.202058876141493]}}, {"type": "Feature", "properties": {"norad_id": 34343, "name": "COSMOS 2251 DEB", "group": "cosmos-2251-debris", "lat": -73.98685146641749, "lon": -8.911557462530599, "alt_km": 669.285564608389, "timestamp": "2025-12-15T11:38:37.546134+00:00", "meta": {"OBJECT_NAME": "COSMOS 2251 DEB", "OBJECT_ID": "1993-036PR", "EPOCH": "2025-12-14T17:09:29.476800", "MEAN_MOTION": 14.69483569, "ECCENTRICITY": 0.00235937, "INCLINATION": 74.0198, "RA_OF_ASC_NODE": 85.7232, "ARG_OF_PERICENTER": 359.7278, "MEAN_ANOMALY": 156.7094, "EPHEMERIS_TYPE": 0, "CLASSIFICATION_TYPE": "U", "NORAD_CAT_ID": 34343, "ELEMENT_SET_NO": 999, "REV_AT_EPOCH": 88759, "BSTAR": 0.0012075968, "MEAN_MOTION_DOT": 7.164e-05, "MEAN_MOTION_DDOT": 0}, "tle": {"line1": "1 34343U 93036PR  25348.71492450  .00007164  00000+0  12076-2 0  9997", "line2": "2 34343  74.0198  85.7232 0023593 359.7278 156.7094 14.69483569887592"}}, "geometry": {"type": "Point", "coordinates": [-8.911557462530599, -73.98685146641749]}}, {"type": "Feature", "properties": {"norad_id": 34344, "name": "COSMOS 2251 DEB", "group": "cosmos-2251-debris", "lat": -23.946741920091455, "lon": -67.22199366829908, "alt_km": 829.3581403994986, "timestamp": "2025-12-15T11:38:37.546143+00:00", "meta": {"OBJECT_NAME": "COSMOS 2251 DEB", "OBJECT_ID": "1993-036PS", "EPOCH": "2025-12-14T18:25:58.870272", "MEAN_MOTION": 14.16427014, "ECCENTRICITY": 0.01559979, "INCLINATION": 73.9772, "RA_OF_ASC_NODE": 106.7256, "ARG_OF_PERICENTER": 290.4627, "MEAN_ANOMALY": 220.9527, "EPHEMERIS_TYPE": 0, "CLASSIFICATION_TYPE": "U", "NORAD_CAT_ID": 34344, "ELEMENT_SET_NO": 999, "REV_AT_EPOCH": 86125, "BSTAR": 0.0017584503, "MEAN_MOTION_DOT": 3.912e-05, "MEAN_MOTION_DDOT": 0}, "tle": {"line1": "1 34344U 93036PS  25348.76804248  .00003912  00000+0  17585-2 0  9992", "line2": "2 34344  73.9772 106.7256 0155997 290.4627 220.9527 14.16427014861257"}}, "geometry": {"type": "Point", "coordinates": [-67.22199366829908, -23.946741920091455]}}, {"type": "Feature", "properties": {"norad_id": 34346, "name": "COSMOS 2251 DEB", "group": "cosmos-2251-debris", "lat": 23.903588428378505, "lon": 120.17419531904297, "alt_km": 762.2335469756108, "timestamp": "2025-12-15T11:38:37.546153+00:00", "meta": {"OBJECT_NAME": "COSMOS 2251 DEB", "OBJECT_ID": "1993-036PU", "EPOCH": "2025-12-14T21:20:41.574048", "MEAN_MOTION": 13.9969951, "ECCENTRICITY": 0.02061843, "INCLINATION": 73.9947, "RA_OF_ASC_NODE": 308.5162, "ARG_OF_PERICENTER": 126.9228, "MEAN_ANOMALY": 265.9491, "EPHEMERIS_TYPE": 0, "CLASSIFICATION_TYPE": "U", "NORAD_CAT_ID": 34346, "ELEMENT_SET_NO": 999, "REV_AT_EPOCH": 85440, "BSTAR": 0.00079489534, "MEAN_MOTION_DOT": 1.374e-05, "MEAN_MOTION_DDOT": 0}, "tle": {"line1": "1 34346U 93036PU  25348.88937007  .00001374  00000+0  79490-3 0  9991", "line2": "2 34346  73.9947 308.5162 0206184 126.9228 265.9491 13.99699510854406"}}, "geometry": {"type": "Point", "coordinates": [120.17419531904297, 23.903588428378505]}}, {"type": "Feature", "properties": {"norad_id": 34383, "name": "COSMOS 2251 DEB", "group": "cosmos-2251-debris", "lat": -7.6364908790236425, "lon": -70.16379518155046, "alt_km": 540.9964125499637, "timestamp": "2025-12-15T11:38:37.546163+00:00", "meta": {"OBJECT_NAME": "COSMOS 2251 DEB", "OBJECT_ID": "1993-036PY", "EPOCH": "2025-12-14T21:36:26.671680", "MEAN_MOTION": 15.09216581, "ECCENTRICITY": 0.0002646, "INCLINATION": 74.0219, "RA_OF_ASC_NODE": 293.2441, "ARG_OF_PERICENTER": 45.2014, "MEAN_ANOMALY": 10.7439, "EPHEMERIS_TYPE": 0, "CLASSIFICATION_TYPE": "U", "NORAD_CAT_ID": 34383, "ELEMENT_SET_NO": 999, "REV_AT_EPOCH": 89146, "BSTAR": 0.0016258821, "MEAN_MOTION_DOT": 0.00025919, "MEAN_MOTION_DDOT": 0}, "tle": {"line1": "1 34383U 93036PY  25348.90030870  .00025919  00000+0  16259-2 0  9991", "line2": "2 34383  74.0219 293.2441 0002646  45.2014  10.7439 15.09216581891465"}}, "geometry": {"type": "Point", "coordinates": [-70.16379518155046, -7.6364908790236425]}}, {"type": "Feature", "properties": {"norad_id": 34387, "name": "COSMOS 2251 DEB", "group": "cosmos-2251-debris", "lat": 3.6511350050982068, "lon": -152.16002106700128, "alt_km": 734.4227822353596, "timestamp": "2025-12-15T11:38:37.546233+00:00", "meta": {"OBJECT_NAME": "COSMOS 2251 DEB", "OBJECT_ID": "1993-036QC", "EPOCH": "2025-12-14T15:56:00.127968", "MEAN_MOTION": 14.43824935, "ECCENTRICITY": 0.00388098, "INCLINATION": 74.0394, "RA_OF_ASC_NODE": 208.3196, "ARG_OF_PERICENTER": 304.8884, "MEAN_ANOMALY": 111.6099, "EPHEMERIS_TYPE": 0, "CLASSIFICATION_TYPE": "U", "NORAD_CAT_ID": 34387, "ELEMENT_SET_NO": 999, "REV_AT_EPOCH": 88209, "BSTAR": 0.00034168407, "MEAN_MOTION_DOT": 1.147e-05, "MEAN_MOTION_DDOT": 0}, "tle": {"line1": "1 34387U 93036QC  25348.66389037  .00001147  00000+0  34168-3 0  9997", "line2": "2 34387  74.0394 208.3196 0038809 304.8884 111.6099 14.43824935882093"}}, "geometry": {"type": "Point", "coordinates": [-152.16002106700128, 3.6511350050982068]}}, {"type": "Feature", "properties": {"norad_id": 34388, "name": "COSMOS 2251 DEB", "group": "cosmos-2251-debris", "lat": 39.01507546993108, "lon": -128.6361851738537, "alt_km": 731.3962522196425, "timestamp": "2025-12-15T11:38:37.546245+00:00", "meta": {"OBJECT_NAME": "COSMOS 2251 DEB", "OBJECT_ID": "1993-036QD", "EPOCH": "2025-12-14T22:17:50.585280", "MEAN_MOTION": 14.49378414, "ECCENTRICITY": 0.00139816, "INCLINATION": 74.0391, "RA_OF_ASC_NODE": 218.9986, "ARG_OF_PERICENTER": 267.0615, "MEAN_ANOMALY": 113.3982, "EPHEMERIS_TYPE": 0, "CLASSIFICATION_TYPE": "U", "NORAD_CAT_ID": 34388, "ELEMENT_SET_NO": 999, "REV_AT_EPOCH": 88187, "BSTAR": 0.00053048064, "MEAN_MOTION_DOT": 2.003e-05, "MEAN_MOTION_DDOT": 0}, "tle": {"line1": "1 34388U 93036QD  25348.92905770  .00002003  00000+0  53048-3 0  9995", "line2": "2 34388  74.0391 218.9986 0013981 267.0615 113.3982 14.49378414881878"}}, "geometry": {"type": "Point", "coordinates": [-128.6361851738537, 39.01507546993108]}}, {"type": "Feature", "properties": {"norad_id": 34389, "name": "COSMOS 2251 DEB", "group": "cosmos-2251-debris", "lat": -13.668831282246769, "lon": -119.27264939090142, "alt_km": 737.2777146443814, "timestamp": "2025-12-15T11:38:37.546255+00:00", "meta": {"OBJECT_NAME": "COSMOS 2251 DEB", "OBJECT_ID": "1993-036QE", "EPOCH": "2025-12-14T21:05:27.665952", "MEAN_MOTION": 14.41538004, "ECCENTRICITY": 0.00290008, "INCLINATION": 74.0186, "RA_OF_ASC_NODE": 245.8478, "ARG_OF_PERICENTER": 357.4876, "MEAN_ANOMALY": 82.9749, "EPHEMERIS_TYPE": 0, "CLASSIFICATION_TYPE": "U", "NORAD_CAT_ID": 34389, "ELEMENT_SET_NO": 999, "REV_AT_EPOCH": 88043, "BSTAR": 0.00039204218, "MEAN_MOTION_DOT": 1.254e-05, "MEAN_MOTION_DDOT": 0}, "tle": {"line1": "1 34389U 93036QE  25348.87879243  .00001254  00000+0  39204-3 0  9990", "line2": "2 34389  74.0186 245.8478 0029000 357.4876  82.9749 14.41538004880436"}}, "geometry": {"type": "Point", "coordinates": [-119.27264939090142, -13.668831282246769]}}, {"type": "Feature", "properties": {"norad_id": 34396, "name": "COSMOS 2251 DEB", "group": "cosmos-2251-debris", "lat": -52.393141794039025, "lon": -39.502487899779425, "alt_km": 652.4077072129803, "timestamp": "2025-12-15T11:38:37.546266+00:00", "meta": {"OBJECT_NAME": "COSMOS 2251 DEB", "OBJECT_ID": "1993-036QM", "EPOCH": "2025-12-14T18:50:05.807616", "MEAN_MOTION": 14.74489575, "ECCENTRICITY": 0.00056783, "INCLINATION": 74.0274, "RA_OF_ASC_NODE": 120.0366, "ARG_OF_PERICENTER": 160.4262, "MEAN_ANOMALY": 318.7953, "EPHEMERIS_TYPE": 0, "CLASSIFICATION_TYPE": "U", "NORAD_CAT_ID": 34396, "ELEMENT_SET_NO": 999, "REV_AT_EPOCH": 88376, "BSTAR": 0.0018560134, "MEAN_MOTION_DOT": 0.00012333, "MEAN_MOTION_DDOT": 0}, "tle": {"line1": "1 34396U 93036QM  25348.78478944  .00012333  00000+0  18560-2 0  9992", "line2": "2 34396  74.0274 120.0366 0005678 160.4262 318.7953 14.74489575883768"}}, "geometry": {"type": "Point", "coordinates": [-39.502487899779425, -52.393141794039025]}}]}